COSMOS 2433 (720)       
1 32275C 07052A   22218.99979167  .00000000  00000-0  00000-0 0  2189
2 32275  66.0820   2.9947 0002448 191.8267 326.4504  2.13103905    15
COSMOS 2432 (719)       
1 32276C 07052B   22218.99979167  .00000000  00000-0  00000-0 0  2180
2 32276  66.0956   3.0966 0007651 334.5580 131.9120  2.13103117    12
COSMOS 2434 (721)       
1 32393C 07065A   22218.99979167  .00000000  00000-0  00000-0 0  2184
2 32393  64.3783 239.7007 0000626 182.3707 225.6506  2.13102909    17
COSMOS 2436 (723)       
1 32395C 07065C   22218.99979167  .00000000  00000-0  00000-0 0  2186
2 32395  64.3871 239.7584 0014803 350.2497 193.6256  2.13102666    17
COSMOS 2456 (730)       
1 36111C 09070A   22218.99979167 -.00000000  00000-0  00000-0 0  2185
2 36111  64.3629 119.3192 0003528 318.4874 254.4097  2.13099185    13
COSMOS 2457 (733)       
1 36112C 09070B   22218.99979167 -.00000000  00000-0  00000-0 0  2186
2 36112  64.3462 119.1938 0004769 160.9763 179.6076  2.13101423    14
COSMOS 2460 (732)       
1 36402C 10007C   22218.99979167  .00000000  00000-0  00000-0 0  2189
2 36402  65.9530   1.7752 0002388 119.2325 205.3152  2.13106242    11
COSMOS 2476 (744)       
1 37867C 11064A   22218.99979167 -.00000000  00000-0  00000-0 0  2180
2 37867  64.6509 120.6951 0021231 236.0459 242.7800  2.13101782    14
COSMOS 2477 (745)       
1 37868C 11064B   22218.99979167 -.00000000  00000-0  00000-0 0  2181
2 37868  64.6585 120.7603 0018545 237.2219  59.6955  2.13101602    12
COSMOS 2475 (743)       
1 37869C 11064C   22218.99979167 -.00000000  00000-0  00000-0 0  2182
2 37869  64.6658 120.7690 0022769 255.4082 359.5853  2.13101938    14
COSMOS 2485 (747)       
1 39155C 13019A   22218.99979167 -.00000000  00000-0  00000-0 0  2184
2 39155  64.8143 121.1343 0021731 231.8781 291.3464  2.13101915    13
COSMOS 2492 (754)       
1 39620C 14012A   22218.99979167  .00000000  00000-0  00000-0 0  2184
2 39620  65.8391   1.4494 0010703 327.1720 230.4825  2.13102898    18
COSMOS 2500 (755)       
1 40001C 14032A   22218.99979167  .00000000  00000-0  00000-0 0  2181
2 40001  65.7785   1.3069 0007191 184.1831 231.9999  2.13102131    15
COSMOS 2501 (702K)      
1 40315C 14075A   22218.99979167  .00000000  00000-0  00000-0 0  2186
2 40315  63.6849 239.4004 0019520 212.4426  11.9843  2.13101212    11
COSMOS 2514 (751)       
1 41330C 16008A   22218.99979167  .00000000  00000-0  00000-0 0  2182
2 41330  65.5783   0.9862 0010337 199.6692  40.4340  2.13102465    18
COSMOS 2547 (705K)      
1 46805C 20075A   22218.99979167  .00000000  00000-0  00000-0 0  2183
2 46805  64.6560 239.7593 0008800 246.5041 251.2588  2.13102795    10
COSMOS 2522 (752)       
1 42939C 17055A   22218.99979167  .00000000  00000-0  00000-0 0  2181
2 42939  64.1446 240.1007 0010224 244.5826 115.2356  2.13101700    17
COSMOS 2527 (756)       
1 43508C 18053A   22218.99979167 -.00000000  00000-0  00000-0 0  2184
2 43508  64.9772 121.1449 0007709 229.6318 162.2788  2.13102467    14
COSMOS 2529 (757)       
1 43687C 18086A   22218.99979167  .00000000  00000-0  00000-0 0  2187
2 43687  64.3595 240.4306 0012035 263.0822  52.2690  2.13101826    14
COSMOS 2534 (758)       
1 44299C 19030A   22218.99979167  .00000000  00000-0  00000-0 0  2187
2 44299  64.4314 240.3200 0014295 281.4670 168.4256  2.13101746    10
COSMOS 2544 (759)       
1 44850C 19088A   22218.99979167 -.00000000  00000-0  00000-0 0  2184
2 44850  64.9624 120.9960 0012038 259.0213 176.3156  2.13102240    12
COSMOS 2545 (760)       
1 45358C 20018A   22218.99979167  .00000000  00000-0  00000-0 0  2182
2 45358  64.9165   1.5528 0007915 233.8432  50.9114  2.13102492    11
